start=new Date('2022-06-07T00:00:00.000Z').valueOf();
sats=[{"ECCENTRICITY":"0.00012040","RA_OF_ASC_NODE":"325.4693","OBJECT_TYPE":"PAYLOAD","DECAY_DATE":null,"ARG_OF_PERICENTER":"103.2176","ELEMENT_SET_NO":"999","REV_AT_EPOCH":"130","EPOCH":"2022-06-06T22:00:00.999936","OBJECT_ID":"2022-052C","NORAD_CAT_ID":"52600","PERIAPSIS":"363.441","MEAN_MOTION_DOT":"-0.00710725","SEMIMAJOR_AXIS":"6742.388","CENTER_NAME":"EARTH","LAUNCH_DATE":"2022-05-14","MEAN_ELEMENT_THEORY":"SGP4","SITE":"AFETR","PERIOD":"91.829","MEAN_MOTION_DDOT":"0.0000000000000","TLE_LINE2":"2 52600  53.2175 325.4693 0001204 103.2176 138.1119 15.68130389  1309","TIME_SYSTEM":"UTC","FILE":"3484350","RCS_SIZE":"LARGE","TLE_LINE1":"1 52600U 22052C   22157.91667824 -.00710725  00000-0 -68134-2 0  9992","INCLINATION":"53.2175","MEAN_MOTION":"15.68130389","APOAPSIS":"365.065","EPHEMERIS_TYPE":"0","MEAN_ANOMALY":"138.1119","GP_ID":"205529072","COUNTRY_CODE":"US","REF_FRAME":"TEME","BSTAR":"-0.00681340000000","CLASSIFICATION_TYPE":"U","OBJECT_NAME":"STARLINK-4026"},{"TLE_LINE2":"2 52601  53.2175 325.4645 0001172  81.5931 158.4372 15.68120992  1303","PERIOD":"91.830","MEAN_MOTION_DDOT":"0.0000000000000","TIME_SYSTEM":"UTC","RCS_SIZE":"LARGE","FILE":"3484350","MEAN_MOTION":"15.68120992","TLE_LINE1":"1 52601U 22052D   22157.91667824 -.00710533  00000-0 -68141-2 0  9998","INCLINATION":"53.2175","APOAPSIS":"365.070","COUNTRY_CODE":"US","REF_FRAME":"TEME","EPHEMERIS_TYPE":"0","MEAN_ANOMALY":"158.4372","GP_ID":"205529578","OBJECT_NAME":"STARLINK-4027","BSTAR":"-0.00681410000000","CLASSIFICATION_TYPE":"U","OBJECT_TYPE":"PAYLOAD","ECCENTRICITY":"0.00011720","RA_OF_ASC_NODE":"325.4645","ELEMENT_SET_NO":"999","REV_AT_EPOCH":"130","DECAY_DATE":null,"ARG_OF_PERICENTER":"81.5931","SEMIMAJOR_AXIS":"6742.415","CENTER_NAME":"EARTH","LAUNCH_DATE":"2022-05-14","EPOCH":"2022-06-06T22:00:00.999936","OBJECT_ID":"2022-052D","NORAD_CAT_ID":"52601","MEAN_MOTION_DOT":"-0.00710533","PERIAPSIS":"363.490","SITE":"AFETR","MEAN_ELEMENT_THEORY":"SGP4"},{"BSTAR":"-0.00681450000000","CLASSIFICATION_TYPE":"U","OBJECT_NAME":"STARLINK-4012","GP_ID":"205529479","MEAN_ANOMALY":"139.3734","EPHEMERIS_TYPE":"0","REF_FRAME":"TEME","COUNTRY_CODE":"US","APOAPSIS":"365.064","TLE_LINE1":"1 52602U 22052E   22157.91667824 -.00710702  00000-0 -68145-2 0  9991","MEAN_MOTION":"15.68125733","INCLINATION":"53.2175","FILE":"3484350","RCS_SIZE":"LARGE","TIME_SYSTEM":"UTC","MEAN_MOTION_DDOT":"0.0000000000000","PERIOD":"91.829","TLE_LINE2":"2 52602  53.2175 325.4671 0001184 101.3065 139.3734 15.68125733  1303","MEAN_ELEMENT_THEORY":"SGP4","SITE":"AFETR","PERIAPSIS":"363.468","MEAN_MOTION_DOT":"-0.00710702","NORAD_CAT_ID":"52602","OBJECT_ID":"2022-052E","EPOCH":"2022-06-06T22:00:00.999936","LAUNCH_DATE":"2022-05-14","CENTER_NAME":"EARTH","SEMIMAJOR_AXIS":"6742.401","ARG_OF_PERICENTER":"101.3065","DECAY_DATE":null,"REV_AT_EPOCH":"130","ELEMENT_SET_NO":"999","RA_OF_ASC_NODE":"325.4671","ECCENTRICITY":"0.00011840","OBJECT_TYPE":"PAYLOAD"},{"BSTAR":"-0.00681120000000","CLASSIFICATION_TYPE":"U","OBJECT_NAME":"STARLINK-4016","GP_ID":"205528972","EPHEMERIS_TYPE":"0","MEAN_ANOMALY":"143.4751","COUNTRY_CODE":"US","REF_FRAME":"TEME","APOAPSIS":"365.025","TLE_LINE1":"1 52603U 22052F   22157.91667824 -.00710782  00000-0 -68112-2 0  9994","INCLINATION":"53.2175","MEAN_MOTION":"15.68140456","FILE":"3484350","RCS_SIZE":"LARGE","TIME_SYSTEM":"UTC","MEAN_MOTION_DDOT":"0.0000000000000","PERIOD":"91.829","TLE_LINE2":"2 52603  53.2175 325.4738 0001188 100.3522 143.4751 15.68140456  1303","MEAN_ELEMENT_THEORY":"SGP4","SITE":"AFETR","MEAN_MOTION_DOT":"-0.00710782","PERIAPSIS":"363.423","NORAD_CAT_ID":"52603","OBJECT_ID":"2022-052F","EPOCH":"2022-06-06T22:00:00.999936","LAUNCH_DATE":"2022-05-14","SEMIMAJOR_AXIS":"6742.359","CENTER_NAME":"EARTH","ARG_OF_PERICENTER":"100.3522","DECAY_DATE":null,"REV_AT_EPOCH":"130","ELEMENT_SET_NO":"999","RA_OF_ASC_NODE":"325.4738","ECCENTRICITY":"0.00011880","OBJECT_TYPE":"PAYLOAD"},{"MEAN_ELEMENT_THEORY":"SGP4","SITE":"AFETR","EPOCH":"2022-06-06T22:00:00.999936","OBJECT_ID":"2022-052G","NORAD_CAT_ID":"52604","MEAN_MOTION_DOT":"-0.00710733","PERIAPSIS":"363.439","CENTER_NAME":"EARTH","SEMIMAJOR_AXIS":"6742.374","LAUNCH_DATE":"2022-05-14","DECAY_DATE":null,"ARG_OF_PERICENTER":"100.2425","ELEMENT_SET_NO":"999","REV_AT_EPOCH":"130","ECCENTRICITY":"0.00011870","RA_OF_ASC_NODE":"325.4712","OBJECT_TYPE":"PAYLOAD","BSTAR":"-0.00681220000000","CLASSIFICATION_TYPE":"U","OBJECT_NAME":"STARLINK-4013","EPHEMERIS_TYPE":"0","MEAN_ANOMALY":"141.7365","GP_ID":"205529408","REF_FRAME":"TEME","COUNTRY_CODE":"US","TIME_SYSTEM":"UTC","RCS_SIZE":"LARGE","FILE":"3484350","MEAN_MOTION":"15.68135073","TLE_LINE1":"1 52604U 22052G   22157.91667824 -.00710733  00000-0 -68122-2 0  9992","INCLINATION":"53.2175","APOAPSIS":"365.040","PERIOD":"91.829","MEAN_MOTION_DDOT":"0.0000000000000","TLE_LINE2":"2 52604  53.2175 325.4712 0001187 100.2425 141.7365 15.68135073  1307"},{"TLE_LINE2":"2 52605  53.2173 326.2105 0001255  96.5904  87.4554 15.52047073  1307","PERIOD":"92.781","MEAN_MOTION_DDOT":"0.0000000000000","FILE":"3484350","RCS_SIZE":"LARGE","TIME_SYSTEM":"UTC","APOAPSIS":"411.604","TLE_LINE1":"1 52605U 22052H   22157.91667824 -.00827878  00000-0 -14747-1 0  9995","MEAN_MOTION":"15.52047073","INCLINATION":"53.2173","COUNTRY_CODE":"US","REF_FRAME":"TEME","EPHEMERIS_TYPE":"0","MEAN_ANOMALY":"87.4554","GP_ID":"205529660","OBJECT_NAME":"STARLINK-4000","CLASSIFICATION_TYPE":"U","BSTAR":"-0.01474700000000","OBJECT_TYPE":"PAYLOAD","RA_OF_ASC_NODE":"326.2105","ECCENTRICITY":"0.00012550","REV_AT_EPOCH":"130","ELEMENT_SET_NO":"999","DECAY_DATE":null,"ARG_OF_PERICENTER":"96.5904","CENTER_NAME":"EARTH","SEMIMAJOR_AXIS":"6788.887","LAUNCH_DATE":"2022-05-14","OBJECT_ID":"2022-052H","EPOCH":"2022-06-06T22:00:00.999936","PERIAPSIS":"409.900","MEAN_MOTION_DOT":"-0.00827878","NORAD_CAT_ID":"52605","SITE":"AFETR","MEAN_ELEMENT_THEORY":"SGP4"},{"OBJECT_NAME":"STARLINK-3928","BSTAR":"-0.00681060000000","CLASSIFICATION_TYPE":"U","REF_FRAME":"TEME","COUNTRY_CODE":"US","MEAN_ANOMALY":"143.3777","EPHEMERIS_TYPE":"0","GP_ID":"205529144","TIME_SYSTEM":"UTC","RCS_SIZE":"LARGE","FILE":"3484350","TLE_LINE1":"1 52606U 22052J   22157.91667824 -.00710705  00000-0 -68106-2 0  9995","INCLINATION":"53.2175","MEAN_MOTION":"15.68139691","APOAPSIS":"365.030","TLE_LINE2":"2 52606  53.2175 325.4732 0001193  99.2509 143.3777 15.68139691  1303","PERIOD":"91.829","MEAN_MOTION_DDOT":"0.0000000000000","SITE":"AFETR","MEAN_ELEMENT_THEORY":"SGP4","CENTER_NAME":"EARTH","SEMIMAJOR_AXIS":"6742.361","LAUNCH_DATE":"2022-05-14","EPOCH":"2022-06-06T22:00:00.999936","OBJECT_ID":"2022-052J","NORAD_CAT_ID":"52606","MEAN_MOTION_DOT":"-0.00710705","PERIAPSIS":"363.422","ELEMENT_SET_NO":"999","REV_AT_EPOCH":"130","DECAY_DATE":null,"ARG_OF_PERICENTER":"99.2509","OBJECT_TYPE":"PAYLOAD","ECCENTRICITY":"0.00011930","RA_OF_ASC_NODE":"325.4732"},{"TLE_LINE2":"2 52607  53.2173 326.2330 0001245  97.0294  89.0560 15.52053409  1301","MEAN_MOTION_DDOT":"0.0000000000000","PERIOD":"92.780","INCLINATION":"53.2173","TLE_LINE1":"1 52607U 22052K   22157.91667824 -.00828050  00000-0 -14747-1 0  9990","MEAN_MOTION":"15.52053409","APOAPSIS":"411.579","TIME_SYSTEM":"UTC","FILE":"3484350","RCS_SIZE":"LARGE","REF_FRAME":"TEME","COUNTRY_CODE":"US","GP_ID":"205529309","EPHEMERIS_TYPE":"0","MEAN_ANOMALY":"89.0560","OBJECT_NAME":"STARLINK-3947","CLASSIFICATION_TYPE":"U","BSTAR":"-0.01474700000000","OBJECT_TYPE":"PAYLOAD","ECCENTRICITY":"0.00012450","RA_OF_ASC_NODE":"326.2330","ELEMENT_SET_NO":"999","REV_AT_EPOCH":"130","ARG_OF_PERICENTER":"97.0294","DECAY_DATE":null,"LAUNCH_DATE":"2022-05-14","CENTER_NAME":"EARTH","SEMIMAJOR_AXIS":"6788.869","NORAD_CAT_ID":"52607","MEAN_MOTION_DOT":"-0.00828050","PERIAPSIS":"409.888","EPOCH":"2022-06-06T22:00:00.999936","OBJECT_ID":"2022-052K","SITE":"AFETR","MEAN_ELEMENT_THEORY":"SGP4"},{"LAUNCH_DATE":"2022-05-14","CENTER_NAME":"EARTH","SEMIMAJOR_AXIS":"6742.357","MEAN_MOTION_DOT":"-0.00710916","PERIAPSIS":"363.400","NORAD_CAT_ID":"52608","OBJECT_ID":"2022-052L","EPOCH":"2022-06-06T22:00:00.999936","SITE":"AFETR","MEAN_ELEMENT_THEORY":"SGP4","OBJECT_TYPE":"PAYLOAD","RA_OF_ASC_NODE":"325.4751","ECCENTRICITY":"0.00012190","REV_AT_EPOCH":"130","ELEMENT_SET_NO":"999","ARG_OF_PERICENTER":"106.3235","DECAY_DATE":null,"COUNTRY_CODE":"US","REF_FRAME":"TEME","GP_ID":"205529073","MEAN_ANOMALY":"138.7025","EPHEMERIS_TYPE":"0","OBJECT_NAME":"STARLINK-3979","CLASSIFICATION_TYPE":"U","BSTAR":"-0.00681230000000","TLE_LINE2":"2 52608  53.2175 325.4751 0001219 106.3235 138.7025 15.68141254  1303","MEAN_MOTION_DDOT":"0.0000000000000","PERIOD":"91.828","APOAPSIS":"365.044","MEAN_MOTION":"15.68141254","TLE_LINE1":"1 52608U 22052L   22157.91667824 -.00710916  00000-0 -68123-2 0  9990","INCLINATION":"53.2175","FILE":"3484350","RCS_SIZE":"LARGE","TIME_SYSTEM":"UTC"},{"RA_OF_ASC_NODE":"325.4757","ECCENTRICITY":"0.00012170","OBJECT_TYPE":"PAYLOAD","DECAY_DATE":null,"ARG_OF_PERICENTER":"107.4173","REV_AT_EPOCH":"130","ELEMENT_SET_NO":"999","OBJECT_ID":"2022-052M","EPOCH":"2022-06-06T22:00:00.999936","MEAN_MOTION_DOT":"-0.00711031","PERIAPSIS":"363.397","NORAD_CAT_ID":"52609","SEMIMAJOR_AXIS":"6742.353","CENTER_NAME":"EARTH","LAUNCH_DATE":"2022-05-14","MEAN_ELEMENT_THEORY":"SGP4","SITE":"AFETR","PERIOD":"91.828","MEAN_MOTION_DDOT":"0.0000000000000","TLE_LINE2":"2 52609  53.2175 325.4757 0001217 107.4173 140.0060 15.68142684  1304","RCS_SIZE":"LARGE","FILE":"3484350","TIME_SYSTEM":"UTC","APOAPSIS":"365.038","INCLINATION":"53.2175","TLE_LINE1":"1 52609U 22052M   22157.91667824 -.00711031  00000-0 -68131-2 0  9999","MEAN_MOTION":"15.68142684","MEAN_ANOMALY":"140.0060","EPHEMERIS_TYPE":"0","GP_ID":"205529579","COUNTRY_CODE":"US","REF_FRAME":"TEME","CLASSIFICATION_TYPE":"U","BSTAR":"-0.00681310000000","OBJECT_NAME":"STARLINK-3997"}];
